[{"OBJECT_NAME":"STARLINK-31133","OBJECT_ID":"2023-203E","EPOCH":"2026-03-09T01:23:00.445920","MEAN_MOTION":15.2757758,"ECCENTRICITY":6.944e-5,"INCLINATION":43.0013,"RA_OF_ASC_NODE":70.7522,"ARG_OF_PERICENTER":221.5435,"MEAN_ANOMALY":138.5364,"EPHEMERIS_TYPE":0,"CLASSIFICATION_TYPE":"U","NORAD_CAT_ID":58622,"ELEMENT_SET_NO":999,"REV_AT_EPOCH":12346,"BSTAR":-1.8540735e-5,"MEAN_MOTION_DOT":-7.72e-6,"MEAN_MOTION_DDOT":0},{"OBJECT_NAME":"CZ-4B R\/B","OBJECT_ID":"2004-035C","EPOCH":"2026-03-09T23:23:31.358400","MEAN_MOTION":15.2906998,"ECCENTRICITY":0.00309852,"INCLINATION":97.3501,"RA_OF_ASC_NODE":103.2135,"ARG_OF_PERICENTER":330.5139,"MEAN_ANOMALY":29.4353,"EPHEMERIS_TYPE":0,"CLASSIFICATION_TYPE":"U","NORAD_CAT_ID":28415,"ELEMENT_SET_NO":999,"REV_AT_EPOCH":17995,"BSTAR":0.00034109099,"MEAN_MOTION_DOT":9.691e-5,"MEAN_MOTION_DDOT":0}]
